{"type": "FeatureCollection", "features": [ {"type": "Feature", "properties": {"norad_id": 31258, "name": "FENGYUN 1C DEB", "group": "fengyun-1c-debris", "lat": 4.086192123303406, "lon": -52.79507008872993, "alt_km": 542.032213384121, "timestamp": "2025-12-04T21:36:16.154206+00:00", "meta": {"OBJECT_NAME": "FENGYUN 1C DEB", "OBJECT_ID": "1999-025BMQ", "EPOCH": "2025-12-03T08:20:25.022112", "MEAN_MOTION": 15.08271995, "ECCENTRICITY": 0.0004715, "INCLINATION": 98.8532, "RA_OF_ASC_NODE": 124.7789, "ARG_OF_PERICENTER": 266.4838, "MEAN_ANOMALY": 122.221, "EPHEMERIS_TYPE": 0, "CLASSIFICATION_TYPE": "U", "NORAD_CAT_ID": 31258, "ELEMENT_SET_NO": 999, "REV_AT_EPOCH": 96969, "BSTAR": 0.011372, "MEAN_MOTION_DOT": 0.00180633, "MEAN_MOTION_DDOT": 0}, "tle": {"line1": "1 31258U 99025BMQ 25337.34751183  .00180633  00000+0  11372-1 0  9991", "line2": "2 31258  98.8532 124.7789 0004715 266.4838 122.2210 15.08271995969694"}}, "geometry": {"type": "Point", "coordinates": [-52.79507008872993, 4.086192123303406]}}, {"type": "Feature", "properties": {"norad_id": 31259, "name": "FENGYUN 1C DEB", "group": "fengyun-1c-debris", "lat": -80.00851821735188, "lon": 173.77267351284078, "alt_km": 818.1276251470445, "timestamp": "2025-12-04T21:36:16.154216+00:00", "meta": {"OBJECT_NAME": "FENGYUN 1C DEB", "OBJECT_ID": "1999-025BMR", "EPOCH": "2025-12-04T02:14:43.056960", "MEAN_MOTION": 14.14932581, "ECCENTRICITY": 0.00654641, "INCLINATION": 99.0108, "RA_OF_ASC_NODE": 57.2076, "ARG_OF_PERICENTER": 219.7624, "MEAN_ANOMALY": 258.8206, "EPHEMERIS_TYPE": 0, "CLASSIFICATION_TYPE": "U", "NORAD_CAT_ID": 31259, "ELEMENT_SET_NO": 999, "REV_AT_EPOCH": 95447, "BSTAR": 0.0037842074, "MEAN_MOTION_DOT": 7.429e-05, "MEAN_MOTION_DDOT": 0}, "tle": {"line1": "1 31259U 99025BMR 25338.09355390  .00007429  00000+0  37842-2 0  9997", "line2": "2 31259  99.0108  57.2076 0065464 219.7624 258.8206 14.14932581954470"}}, "geometry": {"type": "Point", "coordinates": [173.77267351284078, -80.00851821735188]}}, {"type": "Feature", "properties": {"norad_id": 31260, "name": "FENGYUN 1C DEB", "group": "fengyun-1c-debris", "lat": 71.74835577940118, "lon": 84.09990095611344, "alt_km": 793.1574366417108, "timestamp": "2025-12-04T21:36:16.154227+00:00", "meta": {"OBJECT_NAME": "FENGYUN 1C DEB", "OBJECT_ID": "1999-025BMS", "EPOCH": "2025-12-04T11:54:31.508928", "MEAN_MOTION": 14.36347487, "ECCENTRICITY": 0.00476772, "INCLINATION": 98.9566, "RA_OF_ASC_NODE": 235.1106, "ARG_OF_PERICENTER": 316.9331, "MEAN_ANOMALY": 220.9458, "EPHEMERIS_TYPE": 0, "CLASSIFICATION_TYPE": "U", "NORAD_CAT_ID": 31260, "ELEMENT_SET_NO": 999, "REV_AT_EPOCH": 97075, "BSTAR": 0.0026004741, "MEAN_MOTION_DOT": 7.668e-05, "MEAN_MOTION_DDOT": 0}, "tle": {"line1": "1 31260U 99025BMS 25338.49619802  .00007668  00000+0  26005-2 0  9998", "line2": "2 31260  98.9566 235.1106 0047677 316.9331 220.9458 14.36347487970757"}}, "geometry": {"type": "Point", "coordinates": [84.09990095611344, 71.74835577940118]}}, {"type": "Feature", "properties": {"norad_id": 31261, "name": "FENGYUN 1C DEB", "group": "fengyun-1c-debris", "lat": 18.373247717284006, "lon": -71.12285566466822, "alt_km": 777.6449944050537, "timestamp": "2025-12-04T21:36:16.154237+00:00", "meta": {"OBJECT_NAME": "FENGYUN 1C DEB", "OBJECT_ID": "1999-025BMT", "EPOCH": "2025-12-04T03:10:26.911488", "MEAN_MOTION": 14.39990196, "ECCENTRICITY": 0.00502217, "INCLINATION": 99.0139, "RA_OF_ASC_NODE": 291.0915, "ARG_OF_PERICENTER": 258.9513, "MEAN_ANOMALY": 100.6023, "EPHEMERIS_TYPE": 0, "CLASSIFICATION_TYPE": "U", "NORAD_CAT_ID": 31261, "ELEMENT_SET_NO": 999, "REV_AT_EPOCH": 97226, "BSTAR": 0.0022181883, "MEAN_MOTION_DOT": 7.047e-05, "MEAN_MOTION_DDOT": 0}, "tle": {"line1": "1 31261U 99025BMT 25338.13225592  .00007047  00000+0  22182-2 0  9992", "line2": "2 31261  99.0139 291.0915 0050221 258.9513 100.6023 14.39990196972265"}}, "geometry": {"type": "Point", "coordinates": [-71.12285566466822, 18.373247717284006]}}, {"type": "Feature", "properties": {"norad_id": 31262, "name": "FENGYUN 1C DEB", "group": "fengyun-1c-debris", "lat": -64.36839956369029, "lon": 81.54256083085484, "alt_km": 879.257824625497, "timestamp": "2025-12-04T21:36:16.154247+00:00", "meta": {"OBJECT_NAME": "FENGYUN 1C DEB", "OBJECT_ID": "1999-025BMU", "EPOCH": "2025-12-04T05:14:42.038304", "MEAN_MOTION": 14.18091019, "ECCENTRICITY": 0.00562044, "INCLINATION": 99.0031, "RA_OF_ASC_NODE": 61.5565, "ARG_OF_PERICENTER": 122.0091, "MEAN_ANOMALY": 294.116, "EPHEMERIS_TYPE": 0, "CLASSIFICATION_TYPE": "U", "NORAD_CAT_ID": 31262, "ELEMENT_SET_NO": 999, "REV_AT_EPOCH": 95588, "BSTAR": 0.0039565701, "MEAN_MOTION_DOT": 8.207e-05, "MEAN_MOTION_DDOT": 0}, "tle": {"line1": "1 31262U 99025BMU 25338.21854211  .00008207  00000+0  39566-2 0  9991", "line2": "2 31262  99.0031  61.5565 0056204 122.0091 294.1160 14.18091019955880"}}, "geometry": {"type": "Point", "coordinates": [81.54256083085484, -64.36839956369029]}}, {"type": "Feature", "properties": {"norad_id": 31263, "name": "FENGYUN 1C DEB", "group": "fengyun-1c-debris", "lat": -2.171108700594402, "lon": -98.41373077123146, "alt_km": 463.3225269380937, "timestamp": "2025-12-04T21:36:16.154258+00:00", "meta": {"OBJECT_NAME": "FENGYUN 1C DEB", "OBJECT_ID": "1999-025BMV", "EPOCH": "2025-12-04T07:32:53.964672", "MEAN_MOTION": 15.36135277, "ECCENTRICITY": 0.00168594, "INCLINATION": 98.9945, "RA_OF_ASC_NODE": 260.527, "ARG_OF_PERICENTER": 116.7832, "MEAN_ANOMALY": 243.5133, "EPHEMERIS_TYPE": 0, "CLASSIFICATION_TYPE": "U", "NORAD_CAT_ID": 31263, "ELEMENT_SET_NO": 999, "REV_AT_EPOCH": 97036, "BSTAR": 0.02235481, "MEAN_MOTION_DOT": 0.00855451, "MEAN_MOTION_DDOT": 0}, "tle": {"line1": "1 31263U 99025BMV 25338.31451348  .00855451  00000+0  22355-1 0  9995", "line2": "2 31263  98.9945 260.5270 0016859 116.7832 243.5133 15.36135277970366"}}, "geometry": {"type": "Point", "coordinates": [-98.41373077123146, -2.171108700594402]}}, {"type": "Feature", "properties": {"norad_id": 31264, "name": "FENGYUN 1C DEB", "group": "fengyun-1c-debris", "lat": -72.14682587253303, "lon": 25.773835345735293, "alt_km": 837.9329885416382, "timestamp": "2025-12-04T21:36:16.154281+00:00", "meta": {"OBJECT_NAME": "FENGYUN 1C DEB", "OBJECT_ID": "1999-025BMW", "EPOCH": "2025-12-04T11:04:44.830272", "MEAN_MOTION": 14.18561486, "ECCENTRICITY": 0.0001326, "INCLINATION": 99.1145, "RA_OF_ASC_NODE": 235.219, "ARG_OF_PERICENTER": 14.3945, "MEAN_ANOMALY": 161.7822, "EPHEMERIS_TYPE": 0, "CLASSIFICATION_TYPE": "U", "NORAD_CAT_ID": 31264, "ELEMENT_SET_NO": 999, "REV_AT_EPOCH": 96311, "BSTAR": 0.0010707088, "MEAN_MOTION_DOT": 2.17e-05, "MEAN_MOTION_DDOT": 0}, "tle": {"line1": "1 31264U 99025BMW 25338.46162998  .00002170  00000+0  10707-2 0  9993", "line2": "2 31264  99.1145 235.2190 0001326  14.3945 161.7822 14.18561486963118"}}, "geometry": {"type": "Point", "coordinates": [25.773835345735293, -72.14682587253303]}}, {"type": "Feature", "properties": {"norad_id": 31266, "name": "FENGYUN 1C DEB", "group": "fengyun-1c-debris", "lat": 0.3213258059673384, "lon": 141.59458328991636, "alt_km": 876.089379914094, "timestamp": "2025-12-04T21:36:16.154293+00:00", "meta": {"OBJECT_NAME": "FENGYUN 1C DEB", "OBJECT_ID": "1999-025BMY", "EPOCH": "2025-12-03T05:59:43.613376", "MEAN_MOTION": 14.2230717, "ECCENTRICITY": 0.0129947, "INCLINATION": 99.256, "RA_OF_ASC_NODE": 319.81, "ARG_OF_PERICENTER": 311.3886, "MEAN_ANOMALY": 63.6117, "EPHEMERIS_TYPE": 0, "CLASSIFICATION_TYPE": "U", "NORAD_CAT_ID": 31266, "ELEMENT_SET_NO": 999, "REV_AT_EPOCH": 97071, "BSTAR": 0.0005268, "MEAN_MOTION_DOT": 1.227e-05, "MEAN_MOTION_DDOT": 0}, "tle": {"line1": "1 31266U 99025BMY 25337.24981034  .00001227  00000+0  52680-3 0  9999", "line2": "2 31266  99.2560 319.8100 0129947 311.3886  63.6117 14.22307170970710"}}, "geometry": {"type": "Point", "coordinates": [141.59458328991636, 0.3213258059673384]}}, {"type": "Feature", "properties": {"norad_id": 31268, "name": "FENGYUN 1C DEB", "group": "fengyun-1c-debris", "lat": 53.08812922113613, "lon": 9.521120698173863, "alt_km": 898.0275426899643, "timestamp": "2025-12-04T21:36:16.154304+00:00", "meta": {"OBJECT_NAME": "FENGYUN 1C DEB", "OBJECT_ID": "1999-025BNA", "EPOCH": "2025-11-30T20:01:13.105344", "MEAN_MOTION": 14.06369123, "ECCENTRICITY": 0.00492969, "INCLINATION": 98.7575, "RA_OF_ASC_NODE": 17.4295, "ARG_OF_PERICENTER": 216.6529, "MEAN_ANOMALY": 143.1264, "EPHEMERIS_TYPE": 0, "CLASSIFICATION_TYPE": "U", "NORAD_CAT_ID": 31268, "ELEMENT_SET_NO": 999, "REV_AT_EPOCH": 61865, "BSTAR": 0.00085236082, "MEAN_MOTION_DOT": 1.38e-05, "MEAN_MOTION_DDOT": 0}, "tle": {"line1": "1 31268U 99025BNA 25334.83417946  .00001380  00000+0  85236-3 0  9992", "line2": "2 31268  98.7575  17.4295 0049296 216.6529 143.1264 14.06369123618654"}}, "geometry": {"type": "Point", "coordinates": [9.521120698173863, 53.08812922113613]}}, {"type": "Feature", "properties": {"norad_id": 31269, "name": "FENGYUN 1C DEB", "group": "fengyun-1c-debris", "lat": -14.590591603365842, "lon": 35.1193588929486, "alt_km": 792.1393851968905, "timestamp": "2025-12-04T21:36:16.154314+00:00", "meta": {"OBJECT_NAME": "FENGYUN 1C DEB", "OBJECT_ID": "1999-025BNB", "EPOCH": "2025-12-03T05:21:48.651264", "MEAN_MOTION": 14.43359307, "ECCENTRICITY": 0.0241889, "INCLINATION": 98.1813, "RA_OF_ASC_NODE": 215.6529, "ARG_OF_PERICENTER": 304.5693, "MEAN_ANOMALY": 185.362, "EPHEMERIS_TYPE": 0, "CLASSIFICATION_TYPE": "U", "NORAD_CAT_ID": 31269, "ELEMENT_SET_NO": 999, "REV_AT_EPOCH": 96349, "BSTAR": 0.0032129, "MEAN_MOTION_DOT": 0.00015446, "MEAN_MOTION_DDOT": 0}, "tle": {"line1": "1 31269U 99025BNB 25337.22347976  .00015446  00000+0  32129-2 0  9994", "line2": "2 31269  98.1813 215.6529 0241889 304.5693 185.3620 14.43359307963490"}}, "geometry": {"type": "Point", "coordinates": [35.1193588929486, -14.590591603365842]}}]}